{"type": "FeatureCollection", "features": [ {"type": "Feature", "properties": {"norad_id": 44622, "name": "GAOFEN-10R", "group": "resource", "lat": -69.03814803301397, "lon": -46.26563856260675, "alt_km": 630.4791925236486, "timestamp": "2025-12-10T14:53:36.780292+00:00", "meta": {"OBJECT_NAME": "GAOFEN-10R", "OBJECT_ID": "2019-066A", "EPOCH": "2025-12-10T07:06:48.629952", "MEAN_MOTION": 14.82779149, "ECCENTRICITY": 0.00079883, "INCLINATION": 98.0276, "RA_OF_ASC_NODE": 291.7931, "ARG_OF_PERICENTER": 48.8296, "MEAN_ANOMALY": 311.3605, "EPHEMERIS_TYPE": 0, "CLASSIFICATION_TYPE": "U", "NORAD_CAT_ID": 44622, "ELEMENT_SET_NO": 999, "REV_AT_EPOCH": 33438, "BSTAR": 0.00034711281, "MEAN_MOTION_DOT": 2.753e-05, "MEAN_MOTION_DDOT": 0}, "tle": {"line1": "1 44622U 19066A   25344.29639618  .00002753  00000+0  34711-3 0  9997", "line2": "2 44622  98.0276 291.7931 0007988  48.8296 311.3605 14.82779149334385"}}, "geometry": {"type": "Point", "coordinates": [-46.26563856260675, -69.03814803301397]}}, {"type": "Feature", "properties": {"norad_id": 44804, "name": "CARTOSAT-3", "group": "resource", "lat": 4.4503515994060345, "lon": -135.18487548079676, "alt_km": 509.02106239875593, "timestamp": "2025-12-10T14:53:36.780301+00:00", "meta": {"OBJECT_NAME": "CARTOSAT-3", "OBJECT_ID": "2019-081A", "EPOCH": "2025-12-10T06:13:19.807392", "MEAN_MOTION": 15.1933346, "ECCENTRICITY": 0.00138856, "INCLINATION": 97.4578, "RA_OF_ASC_NODE": 43.8742, "ARG_OF_PERICENTER": 94.4538, "MEAN_ANOMALY": 265.8284, "EPHEMERIS_TYPE": 0, "CLASSIFICATION_TYPE": "U", "NORAD_CAT_ID": 44804, "ELEMENT_SET_NO": 999, "REV_AT_EPOCH": 33478, "BSTAR": 0.00020059438, "MEAN_MOTION_DOT": 4.179e-05, "MEAN_MOTION_DDOT": 0}, "tle": {"line1": "1 44804U 19081A   25344.25925703  .00004179  00000+0  20059-3 0  9999", "line2": "2 44804  97.4578  43.8742 0013885  94.4538 265.8284 15.19333460334783"}}, "geometry": {"type": "Point", "coordinates": [-135.18487548079676, 4.4503515994060345]}}, {"type": "Feature", "properties": {"norad_id": 44819, "name": "GAOFEN-12 01", "group": "resource", "lat": -32.60697722624076, "lon": 165.91836789550197, "alt_km": 632.7231270973407, "timestamp": "2025-12-10T14:53:36.780310+00:00", "meta": {"OBJECT_NAME": "GAOFEN-12 01", "OBJECT_ID": "2019-082A", "EPOCH": "2025-12-10T07:26:50.982720", "MEAN_MOTION": 14.80652921, "ECCENTRICITY": 0.00012094, "INCLINATION": 97.8127, "RA_OF_ASC_NODE": 350.6551, "ARG_OF_PERICENTER": 249.8563, "MEAN_ANOMALY": 110.252, "EPHEMERIS_TYPE": 0, "CLASSIFICATION_TYPE": "U", "NORAD_CAT_ID": 44819, "ELEMENT_SET_NO": 999, "REV_AT_EPOCH": 32614, "BSTAR": 0.00011656487, "MEAN_MOTION_DOT": 8.45e-06, "MEAN_MOTION_DDOT": 0}, "tle": {"line1": "1 44819U 19082A   25344.31031230  .00000845  00000+0  11656-3 0  9995", "line2": "2 44819  97.8127 350.6551 0001209 249.8563 110.2520 14.80652921326141"}}, "geometry": {"type": "Point", "coordinates": [165.91836789550197, -32.60697722624076]}}, {"type": "Feature", "properties": {"norad_id": 44873, "name": "CSG-1", "group": "resource", "lat": -47.20595947178201, "lon": 174.5812971970341, "alt_km": 630.0169272493731, "timestamp": "2025-12-10T14:53:36.780320+00:00", "meta": {"OBJECT_NAME": "CSG-1", "OBJECT_ID": "2019-092A", "EPOCH": "2025-12-10T07:00:27.403776", "MEAN_MOTION": 14.82158964, "ECCENTRICITY": 0.00014482, "INCLINATION": 97.8811, "RA_OF_ASC_NODE": 165.653, "ARG_OF_PERICENTER": 85.1537, "MEAN_ANOMALY": 274.9841, "EPHEMERIS_TYPE": 0, "CLASSIFICATION_TYPE": "U", "NORAD_CAT_ID": 44873, "ELEMENT_SET_NO": 999, "REV_AT_EPOCH": 32349, "BSTAR": 0.0001380568, "MEAN_MOTION_DOT": 1.047e-05, "MEAN_MOTION_DDOT": 0}, "tle": {"line1": "1 44873U 19092A   25344.29198384  .00001047  00000+0  13806-3 0  9991", "line2": "2 44873  97.8811 165.6530 0001448  85.1537 274.9841 14.82158964323498"}}, "geometry": {"type": "Point", "coordinates": [174.5812971970341, -47.20595947178201]}}, {"type": "Feature", "properties": {"norad_id": 46277, "name": "NEMO-HD", "group": "resource", "lat": 27.998762252148406, "lon": 39.879703659517645, "alt_km": 443.05002356964724, "timestamp": "2025-12-10T14:53:36.780329+00:00", "meta": {"OBJECT_NAME": "NEMO-HD", "OBJECT_ID": "2020-061F", "EPOCH": "2025-12-10T06:58:31.130976", "MEAN_MOTION": 15.40244508, "ECCENTRICITY": 0.00020386, "INCLINATION": 97.221, "RA_OF_ASC_NODE": 43.4194, "ARG_OF_PERICENTER": 59.2978, "MEAN_ANOMALY": 300.847, "EPHEMERIS_TYPE": 0, "CLASSIFICATION_TYPE": "U", "NORAD_CAT_ID": 46277, "ELEMENT_SET_NO": 999, "REV_AT_EPOCH": 29286, "BSTAR": 0.00037594668, "MEAN_MOTION_DOT": 0.0001505, "MEAN_MOTION_DDOT": 0}, "tle": {"line1": "1 46277U 20061F   25344.29063809  .00015050  00000+0  37595-3 0  9992", "line2": "2 46277  97.2210  43.4194 0002038  59.2978 300.8470 15.40244508292869"}}, "geometry": {"type": "Point", "coordinates": [39.879703659517645, 27.998762252148406]}}, {"type": "Feature", "properties": {"norad_id": 46984, "name": "SENTINEL-6A", "group": "resource", "lat": 42.625712557082174, "lon": -169.13200946681638, "alt_km": 1337.7684641016886, "timestamp": "2025-12-10T14:53:36.780338+00:00", "meta": {"OBJECT_NAME": "SENTINEL-6A", "OBJECT_ID": "2020-086A", "EPOCH": "2025-12-09T23:39:14.637312", "MEAN_MOTION": 12.8093052, "ECCENTRICITY": 0.00077304, "INCLINATION": 66.0391, "RA_OF_ASC_NODE": 168.0287, "ARG_OF_PERICENTER": 269.1798, "MEAN_ANOMALY": 90.8331, "EPHEMERIS_TYPE": 0, "CLASSIFICATION_TYPE": "U", "NORAD_CAT_ID": 46984, "ELEMENT_SET_NO": 999, "REV_AT_EPOCH": 23609, "BSTAR": 6.617319e-05, "MEAN_MOTION_DOT": -4.6e-07, "MEAN_MOTION_DDOT": 0}, "tle": {"line1": "1 46984U 20086A   25343.98558608 -.00000046  00000+0  66173-4 0  9990", "line2": "2 46984  66.0391 168.0287 0007730 269.1798  90.8331 12.80930520236093"}}, "geometry": {"type": "Point", "coordinates": [-169.13200946681638, 42.625712557082174]}}, {"type": "Feature", "properties": {"norad_id": 48079, "name": "GAOFEN-12 02", "group": "resource", "lat": -43.568733487610565, "lon": 150.9638429830247, "alt_km": 635.0829038770562, "timestamp": "2025-12-10T14:53:36.780347+00:00", "meta": {"OBJECT_NAME": "GAOFEN-12 02", "OBJECT_ID": "2021-026A", "EPOCH": "2025-12-10T05:46:33.028320", "MEAN_MOTION": 14.80670463, "ECCENTRICITY": 0.00034819, "INCLINATION": 97.9851, "RA_OF_ASC_NODE": 338.2592, "ARG_OF_PERICENTER": 106.0412, "MEAN_ANOMALY": 254.1184, "EPHEMERIS_TYPE": 0, "CLASSIFICATION_TYPE": "U", "NORAD_CAT_ID": 48079, "ELEMENT_SET_NO": 999, "REV_AT_EPOCH": 25380, "BSTAR": 0.0001226509, "MEAN_MOTION_DOT": 8.9e-06, "MEAN_MOTION_DDOT": 0}, "tle": {"line1": "1 48079U 21026A   25344.24066005  .00000890  00000+0  12265-3 0  9995", "line2": "2 48079  97.9851 338.2592 0003481 106.0412 254.1184 14.80670463253803"}}, "geometry": {"type": "Point", "coordinates": [150.9638429830247, -43.568733487610565]}}, {"type": "Feature", "properties": {"norad_id": 48268, "name": "PLEIADES NEO 3", "group": "resource", "lat": -74.53576639561668, "lon": 87.19774008910117, "alt_km": 632.264068362696, "timestamp": "2025-12-10T14:53:36.780358+00:00", "meta": {"OBJECT_NAME": "PLEIADES NEO 3", "OBJECT_ID": "2021-034A", "EPOCH": "2025-12-08T17:51:26.688096", "MEAN_MOTION": 14.81674889, "ECCENTRICITY": 0.00013213, "INCLINATION": 97.8951, "RA_OF_ASC_NODE": 55.2426, "ARG_OF_PERICENTER": 96.866, "MEAN_ANOMALY": 263.2703, "EPHEMERIS_TYPE": 0, "CLASSIFICATION_TYPE": "U", "NORAD_CAT_ID": 48268, "ELEMENT_SET_NO": 999, "REV_AT_EPOCH": 24945, "BSTAR": 2.6372942e-05, "MEAN_MOTION_DOT": 1.55e-06, "MEAN_MOTION_DDOT": 0}, "tle": {"line1": "1 48268U 21034A   25342.74405889  .00000155  00000+0  26373-4 0  9994", "line2": "2 48268  97.8951  55.2426 0001321  96.8660 263.2703 14.81674889249458"}}, "geometry": {"type": "Point", "coordinates": [87.19774008910117, -74.53576639561668]}}, {"type": "Feature", "properties": {"norad_id": 49070, "name": "PLEIADES NEO 4", "group": "resource", "lat": 74.40111869053278, "lon": -93.10905004958317, "alt_km": 616.0190976259973, "timestamp": "2025-12-10T14:53:36.780367+00:00", "meta": {"OBJECT_NAME": "PLEIADES NEO 4", "OBJECT_ID": "2021-073E", "EPOCH": "2025-12-09T14:07:00.443712", "MEAN_MOTION": 14.81679595, "ECCENTRICITY": 0.0001363, "INCLINATION": 97.8947, "RA_OF_ASC_NODE": 56.0703, "ARG_OF_PERICENTER": 89.0853, "MEAN_ANOMALY": 271.0516, "EPHEMERIS_TYPE": 0, "CLASSIFICATION_TYPE": "U", "NORAD_CAT_ID": 49070, "ELEMENT_SET_NO": 999, "REV_AT_EPOCH": 23329, "BSTAR": 7.8728e-05, "MEAN_MOTION_DOT": 5.68e-06, "MEAN_MOTION_DDOT": 0}, "tle": {"line1": "1 49070U 21073E   25343.58819958  .00000568  00000+0  78728-4 0  9997", "line2": "2 49070  97.8947  56.0703 0001363  89.0853 271.0516 14.81679595233299"}}, "geometry": {"type": "Point", "coordinates": [-93.10905004958317, 74.40111869053278]}}, {"type": "Feature", "properties": {"norad_id": 49260, "name": "LANDSAT 9", "group": "resource", "lat": -52.05921954681241, "lon": 63.43399024171199, "alt_km": 710.0718909632205, "timestamp": "2025-12-10T14:53:36.780376+00:00", "meta": {"OBJECT_NAME": "LANDSAT 9", "OBJECT_ID": "2021-088A", "EPOCH": "2025-12-10T05:14:50.261856", "MEAN_MOTION": 14.57126353, "ECCENTRICITY": 0.00011109, "INCLINATION": 98.2097, "RA_OF_ASC_NODE": 52.3663, "ARG_OF_PERICENTER": 94.7671, "MEAN_ANOMALY": 265.3654, "EPHEMERIS_TYPE": 0, "CLASSIFICATION_TYPE": "U", "NORAD_CAT_ID": 49260, "ELEMENT_SET_NO": 999, "REV_AT_EPOCH": 22348, "BSTAR": 0.00017295923, "MEAN_MOTION_DOT": 7.34e-06, "MEAN_MOTION_DDOT": 0}, "tle": {"line1": "1 49260U 21088A   25344.21863729  .00000734  00000+0  17296-3 0  9997", "line2": "2 49260  98.2097  52.3663 0001110  94.7671 265.3654 14.57126353223487"}}, "geometry": {"type": "Point", "coordinates": [63.43399024171199, -52.05921954681241]}}]}